{
    "links": {
        "self": "http://www.neowsapp.com/rest/v1/neo/3560055?api_key=iIulBulltgU6a56xZRHN4H3l9WmuAYTsLGpBGhQ2"
    },
    "id": "3560055",
    "neo_reference_id": "3560055",
    "name": "(2011 FQ2)",
    "designation": "2011 FQ2",
    "nasa_jpl_url": "http://ssd.jpl.nasa.gov/sbdb.cgi?sstr=3560055",
    "absolute_magnitude_h": 24.0,
    "estimated_diameter": {
        "kilometers": {
            "estimated_diameter_min": 0.0421264611,
            "estimated_diameter_max": 0.0941976306
        },
        "meters": {
            "estimated_diameter_min": 42.1264610556,
            "estimated_diameter_max": 94.1976305719
        },
        "miles": {
            "estimated_diameter_min": 0.0261761612,
            "estimated_diameter_max": 0.0585316759
        },
        "feet": {
            "estimated_diameter_min": 138.2101784897,
            "estimated_diameter_max": 309.0473542854
        }
    },
    "is_potentially_hazardous_asteroid": false,
    "close_approach_data": [
        {
            "close_approach_date": "2011-03-26",
            "close_approach_date_full": "2011-Mar-26 07:53",
            "epoch_date_close_approach": 1301125980000,
            "relative_velocity": {
                "kilometers_per_second": "14.608544253",
                "kilometers_per_hour": "52590.7593108443",
                "miles_per_hour": "32677.8526395632"
            },
            "miss_distance": {
                "astronomical": "0.0337178823",
                "lunar": "13.1162562147",
                "kilometers": "5044123.372990701",
                "miles": "3134272.9258096338"
            },
            "orbiting_body": "Earth"
        }
    ],
    "orbital_data": {
        "orbit_id": "5",
        "orbit_determination_date": "2017-04-06 08:54:04",
        "first_observation_date": "2011-03-24",
        "last_observation_date": "2011-03-25",
        "data_arc_in_days": 1,
        "observations_used": 19,
        "orbit_uncertainty": "9",
        "minimum_orbit_intersection": ".0228808",
        "jupiter_tisserand_invariant": "3.063",
        "epoch_osculation": "2455645.5",
        "eccentricity": ".6596360230469164",
        "semi_major_axis": "2.5668521508122",
        "inclination": "11.11332393380551",
        "ascending_node_longitude": "176.7435416209991",
        "orbital_period": "1502.102982020804",
        "perihelion_distance": ".8736640063010167",
        "perihelion_argument": "54.25167670087471",
        "aphelion_distance": "4.260040295323383",
        "perihelion_time": "2455680.040857232425",
        "mean_anomaly": "351.7218002011124",
        "mean_motion": ".2396639939531217",
        "equinox": "J2000",
        "orbit_class": {
            "orbit_class_type": "APO",
            "orbit_class_description": "Near-Earth asteroid orbits which cross the Earth’s orbit similar to that of 1862 Apollo",
            "orbit_class_range": "a (semi-major axis) > 1.0 AU; q (perihelion) < 1.017 AU"
        }
    },
    "is_sentry_object": false
}